CAS-2T & KS-1Q          
1 41847U 16066G   20307.87386387  .00000178  00000-0  36894-4 0  9995
2 41847  98.6369 359.6670 0365751 176.2069 184.2031 14.38105855209315
NAYIF-1 (EO-88)         
1 42017U 17008BX  20307.91197517  .00003118  00000-0  12064-3 0  9991
2 42017  97.3459  13.3766 0006099 177.0172 183.1104 15.26927682206675
ZHUHAI-1 02 (CAS-4B)    
1 42759U 17034B   20307.86340278  .00000475  00000-0  42200-4 0  9990
2 42759  43.0195 346.5373 0009815 190.5720 163.2594 15.09930334186887
ZHUHAI-1 01 (CAS-4A)    
1 42761U 17034D   20307.86748843  .00000525  00000-0  45152-4 0  9998
2 42761  43.0204 345.7224 0010242 191.6114 166.9866 15.10010119186886
MAX VALIER SAT          
1 42778U 17036P   20307.86655632  .00001641  00000-0  72889-4 0  9998
2 42778  97.2886 357.5658 0010523 252.5276 107.4811 15.22880753186793
RADFXSAT (FOX-1B)       
1 43017U 17073E   20307.74224271  .00001467  00000-0  11929-3 0  9997
2 43017  97.7151 214.5913 0255609 319.9923  38.2699 14.79113622159609
FOX-1D (AO-92)          
1 43137U 18004AC  20307.73929841  .00001906  00000-0  80661-4 0  9997
2 43137  97.4331  17.8858 0007566 293.8626  66.1819 15.24412673156114
DIWATA-2B               
1 43678U 18084H   20307.86291906 -.00000008  00000-0  49203-5 0  9994
2 43678  97.8994  66.3868 0011421  80.7515 279.4965 14.91664991109651
ES'HAIL 2               
1 43700U 18090A   20307.88535903  .00000157  00000-0  00000-0 0  9998
2 43700   0.0160 272.5142 0002044 328.6844 145.9736  1.00274323  7094
FOX-1CLIFF (AO-95)      
1 43770U 18099N   20307.91945174  .00000237  00000-0  26781-4 0  9990
2 43770  97.6931  16.7957 0015980  94.9123 265.3923 14.95080255104604
ITASAT 1                
1 43786U 18099AE  20307.75171148  .00000860  00000-0  82802-4 0  9999
2 43786  97.6949  17.1494 0016777  89.4711 270.8432 14.95408658104605
JY1SAT (JO-97)          
1 43803U 18099AX  20307.74917980  .00001022  00000-0  96965-4 0  9996
2 43803  97.6911  16.9349 0016735  89.7901 270.5238 14.95603689104600
PSAT2 (NO-104)          
1 44354U 19036R   20307.88094099  .00019810  00000-0  28493-3 0  9996
2 44354  28.5291 189.8339 0353722 352.1609   7.3560 15.06146011 74690
BRICSAT2 (NO-103)       
1 44355U 19036S   20307.88600954  .00040432  00000-0  53827-3 0  9993
2 44355  28.5274 172.2214 0322685  20.7787 340.5602 15.14108330 74879
JAISAT-1                
1 44419U 19038F   20307.85554066  .00001833  00000-0  10692-3 0  9990
2 44419  97.5569 267.9750 0022015  18.0526 342.1482 15.13031969 73522
DUCHIFAT-3              
1 44854U 19089C   20307.50229421  .00000670  00000-0  60388-4 0  9991
2 44854  36.9674   2.4531 0007244  94.5790 265.5781 14.99178558 49024
RS-44 & BREEZE-KM R/B   
1 44909U 19096E   20307.89749428  .00000004  00000-0 -20497-4 0  9995
2 44909  82.5198 263.3104 0216241 262.8351  94.8122 12.79708511 39899
ORBITAL FACTORY 2 (OF-2)
1 45113U 19071C   20307.56657302  .00005157  00000-0  16562-3 0  9999
2 45113  51.6444  56.1172 0012674 193.0780 166.9875 15.33951591 42325
HUSKYSAT-1              
1 45119U 19071J   20307.72252179  .00005114  00000-0  16351-3 0  9995
2 45119  51.6433  54.9088 0012038 189.8305 170.2443 15.34119979 42349
SALSAT                  
1 46495U 20068K   20307.89277645  .00001044  00000-0  81386-4 0  9993
2 46495  97.6701 241.0506 0018049 117.1431 243.1621 15.03246523  5294
